GLOBALSTAR M069         
1 31573U 07020C   26195.15611214 -.00000106  00000+0 -12040-3 0  9990
2 31573  52.0010 175.7930 0001674 207.9208 235.9783 12.23472174882106
GLOBALSTAR M072         
1 31574U 07020D   26195.00109927 -.00000069  00000+0  19944-3 0  9995
2 31574  51.9946  28.8595 0001650  33.2549 134.0531 11.91658747878178
GLOBALSTAR M066         
1 32265U 07048C   26194.90948935 -.00000065  00000+0  25156-3 0  9999
2 32265  51.9610 341.2013 0005633  98.8441  74.5363 12.30389264863516
GLOBALSTAR M079         
1 37188U 10054A   26195.00242912 -.00000100  00000+0  18298-4 0  9993
2 37188  52.0051  27.0404 0001117  75.6258  89.0522 12.62266417725931
GLOBALSTAR M074         
1 37189U 10054B   26194.94951662 -.00000098  00000+0  33673-4 0  9995
2 37189  52.0030  26.4627 0000871  91.6370  72.4767 12.62262031726530
GLOBALSTAR M076         
1 37190U 10054C   26194.81854167 -.00000087  00000+0  94326-4 0  9995
2 37190  52.0044  27.0671 0001094  87.9789  80.5807 12.62262314726239
GLOBALSTAR M077         
1 37191U 10054D   26195.10123720 -.00000095  00000+0 -31804-3 0  9994
2 37191  51.9953 110.9831 0002290 223.3144 244.0900 11.67547566724280
GLOBALSTAR M075         
1 37192U 10054E   26195.06456964 -.00000091  00000+0  68520-4 0  9990
2 37192  51.9952  68.3569 0000737  63.5122  84.0712 12.62267829725335
GLOBALSTAR M073         
1 37193U 10054F   26194.73873546 -.00000106  00000+0 -13270-4 0  9993
2 37193  52.0081 343.4703 0001081  94.4555  10.1010 12.62266866727281
GLOBALSTAR M083         
1 37739U 11033A   26194.59318728 -.00000082  00000+0  12087-3 0  9993
2 37739  51.9868 292.1072 0000808 104.1837 359.9407 12.62264056696283
GLOBALSTAR M088         
1 37740U 11033B   26195.19537715 -.00000102  00000+0  11801-4 0  9998
2 37740  52.0185 196.7646 0000061 141.9135 298.6738 12.62269458691907
GLOBALSTAR M091         
1 37741U 11033C   26195.12983544 -.00000122  00000+0 -10242-3 0  9997
2 37741  51.9979 159.8894 0000396  20.7919  62.4381 12.62264239692686
GLOBALSTAR M085         
1 37742U 11033D   26195.12873941 -.00000109  00000+0 -28793-4 0  9993
2 37742  52.0122 111.2086 0000764  39.8584  98.4067 12.62264318693197
GLOBALSTAR M081         
1 37743U 11033E   26195.15578104 -.00000117  00000+0 -73623-4 0  9991
2 37743  51.9952 113.5316 0000648  53.3746  87.6694 12.62265284693346
GLOBALSTAR M089         
1 37744U 11033F   26195.03742971 -.00000093  00000+0  59231-4 0  9995
2 37744  51.9934  68.0457 0000691  88.3128  55.7548 12.62267586694170
GLOBALSTAR M084         
1 38040U 11080A   26194.48238948 -.00000090  00000+0  78270-4 0  9990
2 38040  52.0021 297.2320 0000876 127.5884 312.9037 12.62263497672088
GLOBALSTAR M080         
1 38041U 11080B   26195.23071001 -.00000085  00000+0  10336-3 0  9992
2 38041  52.0067 296.6816 0000321  80.5827 291.8738 12.62257375672308
GLOBALSTAR M082         
1 38042U 11080C   26194.47401115 -.00000071  00000+0  18317-3 0  9993
2 38042  52.0063 254.4891 0000207  94.8998   7.2449 12.62264119672919
GLOBALSTAR M092         
1 38043U 11080D   26194.43303604 -.00000088  00000+0  88877-4 0  9991
2 38043  52.0104 345.0105 0000806 100.4772 294.7204 12.62267776671362
GLOBALSTAR M090         
1 38044U 11080E   26194.33731076 -.00000066  00000+0  21235-3 0  9999
2 38044  52.0109 248.8695 0000440  97.8861 341.5157 12.62269392673012
GLOBALSTAR M086         
1 38045U 11080F   26194.35903874 -.00000079  00000+0  13766-3 0  9993
2 38045  51.9878 248.6890 0001554 109.3959 332.3649 12.62287710672964
GLOBALSTAR M097         
1 39072U 13005A   26195.08547235 -.00000125  00000+0 -11866-3 0  9991
2 39072  52.0026 161.4542 0000403  38.4626 321.6269 12.62271416620309
GLOBALSTAR M093         
1 39073U 13005B   26195.05870130 -.00000120  00000+0 -90865-4 0  9994
2 39073  52.0087 154.8927 0000626  43.0172 317.0744 12.62266337620252
GLOBALSTAR M094         
1 39074U 13005C   26193.87079164 -.00000121  00000+0 -95421-4 0  9995
2 39074  51.9967  72.6003 0000948  58.2720 301.8239 12.62264077621715
GLOBALSTAR M096         
1 39075U 13005D   26195.07208267 -.00000114  00000+0 -59270-4 0  9992
2 39075  52.0067 117.7647 0000715  39.4070 320.6849 12.62265672620789
GLOBALSTAR M078         
1 39076U 13005E   26194.96602163 -.00000100  00000+0  21937-4 0  9996
2 39076  51.9843 202.0614 0000803 334.3792  25.7034 12.62260142619399
GLOBALSTAR M095         
1 39077U 13005F   26195.15107279 -.00000102  00000+0  10748-4 0  9997
2 39077  52.0053 199.1397 0000386  13.8933 346.1944 12.62264181619275
GLOBALSTAR M087         
1 52888U 22064A   26194.68908602 -.00000104  00000+0 -14931-6 0  9996
2 52888  52.0015 341.7692 0000916  84.3600 275.7371 12.62269319194484
