OBJECT_NAME,OBJECT_ID,EPOCH,MEAN_MOTION,ECCENTRICITY,INCLINATION,RA_OF_ASC_NODE,ARG_OF_PERICENTER,MEAN_ANOMALY,EPHEMERIS_TYPE,CLASSIFICATION_TYPE,NORAD_CAT_ID,ELEMENT_SET_NO,REV_AT_EPOCH,BSTAR,MEAN_MOTION_DOT,MEAN_MOTION_DDOT
GLOBALSTAR M069,2007-020C,2026-07-14T03:44:48.088896,12.23472174,.0001674,52.0010,175.7930,207.9208,235.9783,0,U,31573,999,88210,-.1204E-3,-.106E-5,0
GLOBALSTAR M072,2007-020D,2026-07-14T00:01:34.976928,11.91658747,.000165,51.9946,28.8595,33.2549,134.0531,0,U,31574,999,87817,.19944E-3,-.69E-6,0
GLOBALSTAR M066,2007-048C,2026-07-13T21:49:39.879840,12.30389264,.0005633,51.9610,341.2013,98.8441,74.5363,0,U,32265,999,86351,.25156E-3,-.65E-6,0
GLOBALSTAR M079,2010-054A,2026-07-14T00:03:29.875968,12.62266417,.0001117,52.0051,27.0404,75.6258,89.0522,0,U,37188,999,72593,.18298E-4,-.1E-5,0
GLOBALSTAR M074,2010-054B,2026-07-13T22:47:18.235968,12.62262031,.0000871,52.0030,26.4627,91.6370,72.4767,0,U,37189,999,72653,.33673E-4,-.98E-6,0
GLOBALSTAR M076,2010-054C,2026-07-13T19:38:42.000288,12.62262314,.0001094,52.0044,27.0671,87.9789,80.5807,0,U,37190,999,72623,.94326E-4,-.87E-6,0
GLOBALSTAR M077,2010-054D,2026-07-14T02:25:46.894080,11.67547566,.000229,51.9953,110.9831,223.3144,244.0900,0,U,37191,999,72428,-.31804E-3,-.95E-6,0
GLOBALSTAR M075,2010-054E,2026-07-14T01:32:58.816896,12.62267829,.0000737,51.9952,68.3569,63.5122,84.0712,0,U,37192,999,72533,.6852E-4,-.91E-6,0
GLOBALSTAR M073,2010-054F,2026-07-13T17:43:46.743744,12.62266866,.0001081,52.0081,343.4703,94.4555,10.1010,0,U,37193,999,72728,-.1327E-4,-.106E-5,0
GLOBALSTAR M083,2011-033A,2026-07-13T14:14:11.380992,12.62264056,.0000808,51.9868,292.1072,104.1837,359.9407,0,U,37739,999,69628,.12087E-3,-.82E-6,0
GLOBALSTAR M088,2011-033B,2026-07-14T04:41:20.585760,12.62269458,.0000061,52.0185,196.7646,141.9135,298.6738,0,U,37740,999,69190,.11801E-4,-.102E-5,0
GLOBALSTAR M091,2011-033C,2026-07-14T03:06:57.782016,12.62264239,.0000396,51.9979,159.8894,20.7919,62.4381,0,U,37741,999,69268,-.10242E-3,-.122E-5,0
GLOBALSTAR M085,2011-033D,2026-07-14T03:05:23.085024,12.62264318,.0000764,52.0122,111.2086,39.8584,98.4067,0,U,37742,999,69319,-.28793E-4,-.109E-5,0
GLOBALSTAR M081,2011-033E,2026-07-14T03:44:19.481856,12.62265284,.0000648,51.9952,113.5316,53.3746,87.6694,0,U,37743,999,69334,-.73623E-4,-.117E-5,0
GLOBALSTAR M089,2011-033F,2026-07-14T00:53:53.926944,12.62267586,.0000691,51.9934,68.0457,88.3128,55.7548,0,U,37744,999,69417,.59231E-4,-.93E-6,0
GLOBALSTAR M084,2011-080A,2026-07-13T11:34:38.451072,12.62263497,.0000876,52.0021,297.2320,127.5884,312.9037,0,U,38040,999,67208,.782701E-4,-.9E-6,0
GLOBALSTAR M080,2011-080B,2026-07-14T05:32:13.344864,12.62257375,.0000321,52.0067,296.6816,80.5827,291.8738,0,U,38041,999,67230,.10336E-3,-.85E-6,0
GLOBALSTAR M082,2011-080C,2026-07-13T11:22:34.563360,12.62264119,.00002074,52.0063,254.4891,94.8998,7.2449,0,U,38042,999,67291,.18316901E-3,-.71E-6,0
GLOBALSTAR M092,2011-080D,2026-07-13T10:23:34.313856,12.62267776,.00008063,52.0104,345.0105,100.4772,294.7204,0,U,38043,999,67136,.88877017E-4,-.88E-6,0
GLOBALSTAR M090,2011-080E,2026-07-13T08:05:43.649664,12.62269392,.00004407,52.0109,248.8695,97.8861,341.5157,0,U,38044,999,67301,.21234763E-3,-.66E-6,0
GLOBALSTAR M086,2011-080F,2026-07-13T08:37:00.947136,12.62287710,.00015547,51.9878,248.6890,109.3959,332.3649,0,U,38045,999,67296,.13766447E-3,-.79E-6,0
GLOBALSTAR M097,2013-005A,2026-07-14T02:03:04.811040,12.62271416,.0000403,52.0026,161.4542,38.4626,321.6269,0,U,39072,999,62030,-.11866E-3,-.125E-5,0
GLOBALSTAR M093,2013-005B,2026-07-14T01:24:31.792320,12.62266337,.0000626,52.0087,154.8927,43.0172,317.0744,0,U,39073,999,62025,-.90865E-4,-.12E-5,0
GLOBALSTAR M094,2013-005C,2026-07-12T20:53:56.397696,12.62264077,.00009481,51.9967,72.6003,58.2720,301.8239,0,U,39074,999,62171,-.95421143E-4,-.121E-5,0
GLOBALSTAR M096,2013-005D,2026-07-14T01:43:47.942688,12.62265672,.0000715,52.0067,117.7647,39.4070,320.6849,0,U,39075,999,62078,-.5927E-4,-.114E-5,0
GLOBALSTAR M078,2013-005E,2026-07-13T23:11:04.268832,12.62260142,.0000803,51.9843,202.0614,334.3792,25.7034,0,U,39076,999,61939,.21937E-4,-.1E-5,0
GLOBALSTAR M095,2013-005F,2026-07-14T03:37:32.689056,12.62264181,.0000386,52.0053,199.1397,13.8933,346.1944,0,U,39077,999,61927,.10748E-4,-.102E-5,0
GLOBALSTAR M087,2022-064A,2026-07-13T16:32:17.032128,12.62269319,.0000916,52.0015,341.7692,84.3600,275.7371,0,U,52888,999,19448,-.14931E-6,-.104E-5,0
